STARLINK-5124           
1 54011U 22125AZ  26194.83335647  .00068605  00000+0  25989-2 0  9993
2 54011  53.1612 356.7871 0001133  89.4736  61.1485 15.26295982  5798
STARLINK-5126           
1 54012U 22125BA  26194.74633626  .00004280  00000+0  16066-3 0  9998
2 54012  53.1624 354.4482 0001527  86.4875 273.6300 15.29338711208683
STARLINK-5098           
1 54013U 22125BB  26194.83335647  .00072189  00000+0  27910-2 0  9993
2 54013  53.1610 356.6621 0001362  74.7161 139.7527 15.25593766  5781
STARLINK-5055           
1 54015U 22125BD  26194.83335647  .00073877  00000+0  25704-2 0  9999
2 54015  53.2165 356.3152 0001561  83.3130  76.7458 15.29060927  5839
STARLINK-5195           
1 54051U 22136A   26194.25961370  .00000377  00000+0  42582-4 0  9995
2 54051  53.1907 140.8615 0001258  82.3345 277.7789 15.08020787205796
STARLINK-5189           
1 54052U 22136B   26193.92266526 -.00000210  00000+0  49201-5 0  9993
2 54052  53.1607 101.4921 0001389  97.0589 263.0561 15.08826916206318
STARLINK-5176           
1 54053U 22136C   26194.26394441  .00000759  00000+0  36208-4 0  9999
2 54053  53.1614 137.1953 0001253  85.6770 274.4374 15.31703739205841
STARLINK-5163           
1 54054U 22136D   26194.83335647  .00026890  00000+0  87522-3 0  9994
2 54054  53.1620 135.9512 0001327  95.7811 190.5532 15.31697910  5841
STARLINK-5158           
1 54055U 22136E   26194.83335647  .00053126  00000+0  26565-2 0  9996
2 54055  53.1610 137.5814 0001284  35.3084 101.5971 15.16946988  5796
STARLINK-5226           
1 54056U 22136F   26193.97415268  .00000244  00000+0  33404-4 0  9994
2 54056  53.1587 141.0323 0001499  82.6799 277.4363 15.08834556205766
STARLINK-5167           
1 54058U 22136H   26194.83335647  .00060457  00000+0  31579-2 0  9995
2 54058  53.1614 137.4625 0002590 145.5476  50.4339 15.15349847  5781
STARLINK-5173           
1 54059U 22136J   26194.83335647  .00054748  00000+0  26093-2 0  9997
2 54059  53.1615 137.3700 0001012 133.2218 111.8990 15.18607884  5834
STARLINK-5169           
1 54060U 22136K   26194.17563673  .00000019  00000+0  19274-4 0  9995
2 54060  53.1602 110.1985 0001246  94.9340 265.1794 15.08835250206213
STARLINK-5209           
1 54061U 22136L   26194.83335647  .00016581  00000+0  86588-3 0  9999
2 54061  53.1613 102.0111 0002317  72.7805   3.8809 15.16046251  5683
STARLINK-5170           
1 54062U 22136M   26194.83335647  .00059127  00000+0  30492-2 0  9995
2 54062  53.1611 137.4264 0001472 106.6285 107.9753 15.15812731  5837
STARLINK-5172           
1 54064U 22136P   26194.86079613  .00000295  00000+0  22545-4 0  9992
2 54064  53.1604  89.5885 0001289 102.2983 257.8161 15.29359996206565
STARLINK-5187           
1 54065U 22136Q   26194.83335647  .00060059  00000+0  32548-2 0  9998
2 54065  53.1614 137.3717 0000593 200.0166  42.3494 15.14048030  5785
STARLINK-5151           
1 54066U 22136R   26194.23028464  .00000143  00000+0  27560-4 0  9997
2 54066  53.1884 140.6804 0001516  82.8671 277.2493 15.08015268205793
STARLINK-5174           
1 54067U 22136S   26194.83335647  .00064915  00000+0  33306-2 0  9998
2 54067  53.1606 137.2170 0002331  33.9504 287.8137 15.15947367  5783
STARLINK-5222           
1 54068U 22136T   26194.26121921  .00001155  00000+0  90662-4 0  9991
2 54068  53.1548 139.9658 0001694  84.6719 275.4465 15.08846493205803
STARLINK-5181           
1 54070U 22136V   26194.83335647  .00065155  00000+0  36672-2 0  9998
2 54070  53.1607 137.2415 0001526  22.8343 285.9402 15.12654930  5639
STARLINK-5168           
1 54071U 22136W   26194.83335647  .00066083  00000+0  35695-2 0  9994
2 54071  53.1611 137.1674 0001031  68.0600 278.0278 15.14119048  5632
STARLINK-5146           
1 54073U 22136Y   26194.84126117 -.00000559  00000+0 -17029-4 0  9998
2 54073  53.1557 132.2072 0001862  86.6434 273.4770 15.08833485205969
STARLINK-5192           
1 54074U 22136Z   26194.24279737  .00000553  00000+0  52815-4 0  9994
2 54074  53.1595 139.8538 0001356  92.3627 267.7520 15.08835279205803
STARLINK-5212           
1 54075U 22136AA  26194.24851486  .00002491  00000+0  92017-4 0  9993
2 54075  53.1609 131.4089 0001358  84.1316 275.9840 15.31700173205924
STARLINK-5201           
1 54076U 22136AB  26193.83534857  .00000470  00000+0  47602-4 0  9993
2 54076  53.1593 142.2725 0001368  84.9069 275.2079 15.08838776205739
STARLINK-5171           
1 54077U 22136AC  26194.18912945 -.00000091  00000+0  12348-4 0  9990
2 54077  53.1613 116.1159 0000708 118.3882 241.7181 15.08835648206138
STARLINK-5175           
1 54079U 22136AE  26193.96778605 -.00000131  00000+0  98680-5 0  9999
2 54079  53.1582 131.7001 0000877 101.4711 258.6379 15.08833290205894
STARLINK-5210           
1 54082U 22136AH  26193.23546354 -.00000549  00000+0 -16370-4 0  9996
2 54082  53.1605 134.9497 0001530  87.0441 273.0726 15.08832455205781
STARLINK-5178           
1 54083U 22136AJ  26194.21801492  .00000640  00000+0  58343-4 0  9999
2 54083  53.1591 130.4161 0001500  88.1840 271.9324 15.08832751205934
