OBJECT_NAME,OBJECT_ID,EPOCH,MEAN_MOTION,ECCENTRICITY,INCLINATION,RA_OF_ASC_NODE,ARG_OF_PERICENTER,MEAN_ANOMALY,EPHEMERIS_TYPE,CLASSIFICATION_TYPE,NORAD_CAT_ID,ELEMENT_SET_NO,REV_AT_EPOCH,BSTAR,MEAN_MOTION_DOT,MEAN_MOTION_DDOT
STARLINK-5124,2022-125AZ,2026-07-13T20:00:01.999008,15.26295982,.0001133,53.1612,356.7871,89.4736,61.1485,0,U,54011,999,579,.25989E-2,.68605E-3,0
STARLINK-5126,2022-125BA,2026-07-13T17:54:43.452864,15.29338711,.0001527,53.1624,354.4482,86.4875,273.6300,0,U,54012,999,20868,.16066E-3,.428E-4,0
STARLINK-5098,2022-125BB,2026-07-13T20:00:01.999008,15.25593766,.0001362,53.1610,356.6621,74.7161,139.7527,0,U,54013,999,578,.2791E-2,.72189E-3,0
STARLINK-5055,2022-125BD,2026-07-13T20:00:01.999008,15.29060927,.0001561,53.2165,356.3152,83.3130,76.7458,0,U,54015,999,583,.25704E-2,.73877E-3,0
STARLINK-5195,2022-136A,2026-07-13T06:13:50.623680,15.08020787,.0001258,53.1907,140.8615,82.3345,277.7789,0,U,54051,999,20579,.42582E-4,.377E-5,0
STARLINK-5189,2022-136B,2026-07-12T22:08:38.278464,15.08826916,.00013892,53.1607,101.4921,97.0589,263.0561,0,U,54052,999,20631,.4920113E-5,-.21E-5,0
STARLINK-5176,2022-136C,2026-07-13T06:20:04.797024,15.31703739,.0001253,53.1614,137.1953,85.6770,274.4374,0,U,54053,999,20584,.36208E-4,.759E-5,0
STARLINK-5163,2022-136D,2026-07-13T20:00:01.999008,15.31697910,.0001327,53.1620,135.9512,95.7811,190.5532,0,U,54054,999,584,.87522E-3,.2689E-3,0
STARLINK-5158,2022-136E,2026-07-13T20:00:01.999008,15.16946988,.0001284,53.1610,137.5814,35.3084,101.5971,0,U,54055,999,579,.26565E-2,.53126E-3,0
STARLINK-5226,2022-136F,2026-07-12T23:22:46.791552,15.08834556,.00014996,53.1587,141.0323,82.6799,277.4363,0,U,54056,999,20576,.33404164E-4,.244E-5,0
STARLINK-5167,2022-136H,2026-07-13T20:00:01.999008,15.15349847,.000259,53.1614,137.4625,145.5476,50.4339,0,U,54058,999,578,.31579E-2,.60457E-3,0
STARLINK-5173,2022-136J,2026-07-13T20:00:01.999008,15.18607884,.0001012,53.1615,137.3700,133.2218,111.8990,0,U,54059,999,583,.26093E-2,.54748E-3,0
STARLINK-5169,2022-136K,2026-07-13T04:12:55.013472,15.08835250,.00012466,53.1602,110.1985,94.9340,265.1794,0,U,54060,999,20621,.19274189E-4,.19E-6,0
STARLINK-5209,2022-136L,2026-07-13T20:00:01.999008,15.16046251,.0002317,53.1613,102.0111,72.7805,3.8809,0,U,54061,999,568,.86588E-3,.16581E-3,0
STARLINK-5170,2022-136M,2026-07-13T20:00:01.999008,15.15812731,.0001472,53.1611,137.4264,106.6285,107.9753,0,U,54062,999,583,.30492E-2,.59127E-3,0
STARLINK-5172,2022-136P,2026-07-13T20:39:32.785632,15.29359996,.0001289,53.1604,89.5885,102.2983,257.8161,0,U,54064,999,20656,.22545E-4,.295E-5,0
STARLINK-5187,2022-136Q,2026-07-13T20:00:01.999008,15.14048030,.0000593,53.1614,137.3717,200.0166,42.3494,0,U,54065,999,578,.32548E-2,.60059E-3,0
STARLINK-5151,2022-136R,2026-07-13T05:31:36.592896,15.08015268,.0001516,53.1884,140.6804,82.8671,277.2493,0,U,54066,999,20579,.2756E-4,.143E-5,0
STARLINK-5174,2022-136S,2026-07-13T20:00:01.999008,15.15947367,.0002331,53.1606,137.2170,33.9504,287.8137,0,U,54067,999,578,.33306E-2,.64915E-3,0
STARLINK-5222,2022-136T,2026-07-13T06:16:09.339744,15.08846493,.0001694,53.1548,139.9658,84.6719,275.4465,0,U,54068,999,20580,.90662E-4,.1155E-4,0
STARLINK-5181,2022-136V,2026-07-13T20:00:01.999008,15.12654930,.0001526,53.1607,137.2415,22.8343,285.9402,0,U,54070,999,563,.36672E-2,.65155E-3,0
STARLINK-5168,2022-136W,2026-07-13T20:00:01.999008,15.14119048,.0001031,53.1611,137.1674,68.0600,278.0278,0,U,54071,999,563,.35695E-2,.66083E-3,0
STARLINK-5146,2022-136Y,2026-07-13T20:11:24.965088,15.08833485,.0001862,53.1557,132.2072,86.6434,273.4770,0,U,54073,999,20596,-.17029E-4,-.559E-5,0
STARLINK-5192,2022-136Z,2026-07-13T05:49:37.692768,15.08835279,.0001356,53.1595,139.8538,92.3627,267.7520,0,U,54074,999,20580,.52815E-4,.553E-5,0
STARLINK-5212,2022-136AA,2026-07-13T05:57:51.683904,15.31700173,.0001358,53.1609,131.4089,84.1316,275.9840,0,U,54075,999,20592,.92017E-4,.2491E-4,0
STARLINK-5201,2022-136AB,2026-07-12T20:02:54.116448,15.08838776,.00013689,53.1593,142.2725,84.9069,275.2079,0,U,54076,999,20573,.47601838E-4,.47E-5,0
STARLINK-5171,2022-136AC,2026-07-13T04:32:20.784480,15.08835648,.00007089,53.1613,116.1159,118.3882,241.7181,0,U,54077,999,20613,.12347525E-4,-.91E-6,0
STARLINK-5175,2022-136AE,2026-07-12T23:13:36.714720,15.08833290,.00008775,53.1582,131.7001,101.4711,258.6379,0,U,54079,999,20589,.9868009E-5,-.131E-5,0
STARLINK-5210,2022-136AH,2026-07-12T05:39:04.049856,15.08832455,.000153,53.1605,134.9497,87.0441,273.0726,0,U,54082,999,20578,-.1637E-4,-.549E-5,0
STARLINK-5178,2022-136AJ,2026-07-13T05:13:56.489088,15.08832751,.00015,53.1591,130.4161,88.1840,271.9324,0,U,54083,999,20593,.58343E-4,.64E-5,0
